start=new Date('2022-12-03T00:00:00.000Z').valueOf();
sats=[{"CENTER_NAME":"EARTH","COUNTRY_CODE":"US","FILE":"3679625","MEAN_ELEMENT_THEORY":"SGP4","TLE_LINE2":"2 53686  97.6525 215.7910 0002185 124.2773 261.7959 15.01245117  1301","REV_AT_EPOCH":"130","MEAN_MOTION_DOT":"-0.00004218","TLE_LINE1":"1 53686U 22105AQ  22336.91667824 -.00004218  00000-0 -32409-3 0  9995","INCLINATION":"97.6525","SITE":"AFWTR","PERIOD":"95.920","EPHEMERIS_TYPE":"0","RA_OF_ASC_NODE":"215.7910","PERIAPSIS":"561.541","OBJECT_ID":"2022-105AQ","ARG_OF_PERICENTER":"124.2773","TIME_SYSTEM":"UTC","NORAD_CAT_ID":"53686","MEAN_ANOMALY":"261.7959","RCS_SIZE":"LARGE","SEMIMAJOR_AXIS":"6941.193","REF_FRAME":"TEME","CLASSIFICATION_TYPE":"U","ELEMENT_SET_NO":"999","ECCENTRICITY":"0.00021850","OBJECT_TYPE":"PAYLOAD","MEAN_MOTION":"15.01245117","BSTAR":"-0.00032409000000","APOAPSIS":"564.574","LAUNCH_DATE":"2022-08-31","DECAY_DATE":null,"EPOCH":"2022-12-02T22:00:00.999936","GP_ID":"219384230","OBJECT_NAME":"STARLINK-4467","MEAN_MOTION_DDOT":"0.0000000000000"},{"CENTER_NAME":"EARTH","MEAN_ELEMENT_THEORY":"SGP4","TLE_LINE2":"2 53687  97.6529 215.7912 0002165 124.7934 251.2672 15.01260533  1305","MEAN_MOTION_DOT":"-0.00033024","REV_AT_EPOCH":"130","TLE_LINE1":"1 53687U 22105AR  22336.91667824 -.00033024  00000-0 -25784-2 0  9990","COUNTRY_CODE":"US","FILE":"3679625","PERIOD":"95.919","EPHEMERIS_TYPE":"0","INCLINATION":"97.6529","SITE":"AFWTR","ARG_OF_PERICENTER":"124.7934","RA_OF_ASC_NODE":"215.7912","OBJECT_ID":"2022-105AR","PERIAPSIS":"561.507","SEMIMAJOR_AXIS":"6941.145","TIME_SYSTEM":"UTC","NORAD_CAT_ID":"53687","RCS_SIZE":"LARGE","MEAN_ANOMALY":"251.2672","ECCENTRICITY":"0.00021650","ELEMENT_SET_NO":"999","OBJECT_TYPE":"PAYLOAD","MEAN_MOTION":"15.01260533","REF_FRAME":"TEME","CLASSIFICATION_TYPE":"U","BSTAR":"-0.00257840000000","OBJECT_NAME":"STARLINK-4569","MEAN_MOTION_DDOT":"0.0000000000000","LAUNCH_DATE":"2022-08-31","APOAPSIS":"564.513","DECAY_DATE":null,"EPOCH":"2022-12-02T22:00:00.999936","GP_ID":"219384415"},{"MEAN_MOTION":"15.01243723","OBJECT_TYPE":"PAYLOAD","ECCENTRICITY":"0.00017110","ELEMENT_SET_NO":"999","CLASSIFICATION_TYPE":"U","REF_FRAME":"TEME","SEMIMAJOR_AXIS":"6941.197","RCS_SIZE":"LARGE","MEAN_ANOMALY":"286.4923","TIME_SYSTEM":"UTC","NORAD_CAT_ID":"53688","MEAN_MOTION_DDOT":"0.0000000000000","OBJECT_NAME":"STARLINK-4571","EPOCH":"2022-12-02T22:00:00.999936","GP_ID":"219384969","LAUNCH_DATE":"2022-08-31","APOAPSIS":"564.250","DECAY_DATE":null,"BSTAR":"0.00039770000000","TLE_LINE1":"1 53688U 22105AS  22336.91667824  .00005051  00000-0  39770-3 0  9999","MEAN_ELEMENT_THEORY":"SGP4","REV_AT_EPOCH":"130","TLE_LINE2":"2 53688  97.6534 215.7911 0001711 119.5663 286.4923 15.01243723  1309","MEAN_MOTION_DOT":"0.00005051","FILE":"3679625","COUNTRY_CODE":"US","CENTER_NAME":"EARTH","ARG_OF_PERICENTER":"119.5663","OBJECT_ID":"2022-105AS","PERIAPSIS":"561.874","RA_OF_ASC_NODE":"215.7911","PERIOD":"95.920","EPHEMERIS_TYPE":"0","SITE":"AFWTR","INCLINATION":"97.6534"},{"OBJECT_NAME":"STARLINK-4562","MEAN_MOTION_DDOT":"0.0000000000000","APOAPSIS":"564.304","LAUNCH_DATE":"2022-08-31","DECAY_DATE":null,"EPOCH":"2022-12-02T22:00:00.999936","GP_ID":"219384785","BSTAR":"-0.00067726000000","ECCENTRICITY":"0.00018400","ELEMENT_SET_NO":"999","OBJECT_TYPE":"PAYLOAD","MEAN_MOTION":"15.01255204","REF_FRAME":"TEME","CLASSIFICATION_TYPE":"U","SEMIMAJOR_AXIS":"6941.162","TIME_SYSTEM":"UTC","NORAD_CAT_ID":"53689","RCS_SIZE":"LARGE","MEAN_ANOMALY":"276.3334","ARG_OF_PERICENTER":"119.7186","RA_OF_ASC_NODE":"215.7912","OBJECT_ID":"2022-105AT","PERIAPSIS":"561.749","PERIOD":"95.920","EPHEMERIS_TYPE":"0","SITE":"AFWTR","INCLINATION":"97.6530","MEAN_ELEMENT_THEORY":"SGP4","MEAN_MOTION_DOT":"-0.00008746","TLE_LINE2":"2 53689  97.6530 215.7912 0001840 119.7186 276.3334 15.01255204  1303","REV_AT_EPOCH":"130","TLE_LINE1":"1 53689U 22105AT  22336.91667824 -.00008746  00000-0 -67726-3 0  9998","COUNTRY_CODE":"US","FILE":"3679625","CENTER_NAME":"EARTH"},{"BSTAR":"0.00381780000000","DECAY_DATE":null,"APOAPSIS":"565.327","LAUNCH_DATE":"2022-08-31","GP_ID":"219383862","EPOCH":"2022-12-02T22:00:00.999936","MEAN_MOTION_DDOT":"0.0000000000000","OBJECT_NAME":"STARLINK-4570","NORAD_CAT_ID":"53690","TIME_SYSTEM":"UTC","RCS_SIZE":"LARGE","MEAN_ANOMALY":"265.4593","SEMIMAJOR_AXIS":"6941.731","CLASSIFICATION_TYPE":"U","REF_FRAME":"TEME","ELEMENT_SET_NO":"999","ECCENTRICITY":"0.00024940","MEAN_MOTION":"15.01070507","OBJECT_TYPE":"PAYLOAD","INCLINATION":"97.6528","SITE":"AFWTR","EPHEMERIS_TYPE":"0","PERIOD":"95.932","RA_OF_ASC_NODE":"215.7905","PERIAPSIS":"561.865","OBJECT_ID":"2022-105AU","ARG_OF_PERICENTER":"151.3219","CENTER_NAME":"EARTH","COUNTRY_CODE":"US","FILE":"3679625","REV_AT_EPOCH":"130","TLE_LINE2":"2 53690  97.6528 215.7905 0002494 151.3219 265.4593 15.01070507  1306","MEAN_MOTION_DOT":"0.00049077","MEAN_ELEMENT_THEORY":"SGP4","TLE_LINE1":"1 53690U 22105AU  22336.91667824  .00049077  00000-0  38178-2 0  9998"},{"EPHEMERIS_TYPE":"0","PERIOD":"95.920","SITE":"AFWTR","INCLINATION":"97.6531","ARG_OF_PERICENTER":"132.4333","OBJECT_ID":"2022-105AV","PERIAPSIS":"561.432","RA_OF_ASC_NODE":"215.7915","CENTER_NAME":"EARTH","TLE_LINE1":"1 53691U 22105AV  22336.91667824  .00005467  00000-0  42995-3 0  9997","MEAN_MOTION_DOT":"0.00005467","TLE_LINE2":"2 53691  97.6531 215.7915 0002307 132.4333 282.2385 15.01253152  1307","REV_AT_EPOCH":"130","MEAN_ELEMENT_THEORY":"SGP4","FILE":"3679625","COUNTRY_CODE":"US","BSTAR":"0.00042995000000","MEAN_MOTION_DDOT":"0.0000000000000","OBJECT_NAME":"STARLINK-4560","GP_ID":"219384046","EPOCH":"2022-12-02T22:00:00.999936","DECAY_DATE":null,"APOAPSIS":"564.634","LAUNCH_DATE":"2022-08-31","SEMIMAJOR_AXIS":"6941.168","MEAN_ANOMALY":"282.2385","RCS_SIZE":"LARGE","NORAD_CAT_ID":"53691","TIME_SYSTEM":"UTC","OBJECT_TYPE":"PAYLOAD","MEAN_MOTION":"15.01253152","ELEMENT_SET_NO":"999","ECCENTRICITY":"0.00023070","CLASSIFICATION_TYPE":"U","REF_FRAME":"TEME"},{"COUNTRY_CODE":"US","FILE":"3679435","MEAN_ELEMENT_THEORY":"SGP4","TLE_LINE2":"2 53692  97.6533 215.8724 0001725 105.3803  50.7606 15.01211954 14574","MEAN_MOTION_DOT":"0.00051671","REV_AT_EPOCH":"1457","TLE_LINE1":"1 53692U 22105AW  22337.00001157  .00051671  00000-0  40031-2 0  9996","CENTER_NAME":"EARTH","RA_OF_ASC_NODE":"215.8724","OBJECT_ID":"2022-105AW","PERIAPSIS":"561.963","ARG_OF_PERICENTER":"105.3803","SITE":"AFWTR","INCLINATION":"97.6533","PERIOD":"95.922","EPHEMERIS_TYPE":"0","CLASSIFICATION_TYPE":"U","REF_FRAME":"TEME","ELEMENT_SET_NO":"999","ECCENTRICITY":"0.00017250","OBJECT_TYPE":"PAYLOAD","MEAN_MOTION":"15.01211954","TIME_SYSTEM":"UTC","NORAD_CAT_ID":"53692","MEAN_ANOMALY":"50.7606","RCS_SIZE":"LARGE","SEMIMAJOR_AXIS":"6941.295","APOAPSIS":"564.357","LAUNCH_DATE":"2022-08-31","DECAY_DATE":null,"EPOCH":"2022-12-03T00:00:00.999648","GP_ID":"219358056","OBJECT_NAME":"STARLINK-4572","MEAN_MOTION_DDOT":"0.0000000000000","BSTAR":"0.00400310000000"},{"CENTER_NAME":"EARTH","TLE_LINE2":"2 53693  97.6541 215.7910 0001587  91.5913 344.4604 15.01248343  1304","REV_AT_EPOCH":"130","MEAN_MOTION_DOT":"0.00006635","MEAN_ELEMENT_THEORY":"SGP4","TLE_LINE1":"1 53693U 22105AX  22336.91667824  .00006635  00000-0  52080-3 0  9993","COUNTRY_CODE":"US","FILE":"3679625","EPHEMERIS_TYPE":"0","PERIOD":"95.920","INCLINATION":"97.6541","SITE":"AFWTR","ARG_OF_PERICENTER":"91.5913","RA_OF_ASC_NODE":"215.7910","OBJECT_ID":"2022-105AX","PERIAPSIS":"561.946","SEMIMAJOR_AXIS":"6941.183","NORAD_CAT_ID":"53693","TIME_SYSTEM":"UTC","MEAN_ANOMALY":"344.4604","RCS_SIZE":"LARGE","ECCENTRICITY":"0.00015870","ELEMENT_SET_NO":"999","MEAN_MOTION":"15.01248343","OBJECT_TYPE":"PAYLOAD","REF_FRAME":"TEME","CLASSIFICATION_TYPE":"U","BSTAR":"0.00052080000000","MEAN_MOTION_DDOT":"0.0000000000000","OBJECT_NAME":"STARLINK-4566","DECAY_DATE":null,"LAUNCH_DATE":"2022-08-31","APOAPSIS":"564.149","GP_ID":"219385155","EPOCH":"2022-12-02T22:00:00.999936"},{"OBJECT_NAME":"STARLINK-4725","MEAN_MOTION_DDOT":"0.0000000000000","APOAPSIS":"512.013","LAUNCH_DATE":"2022-09-05","DECAY_DATE":null,"EPOCH":"2022-12-02T22:00:00.999936","GP_ID":"219384970","BSTAR":"-0.06175100000000","ECCENTRICITY":"0.00014950","ELEMENT_SET_NO":"999","OBJECT_TYPE":"PAYLOAD","MEAN_MOTION":"15.18298937","REF_FRAME":"TEME","CLASSIFICATION_TYPE":"U","SEMIMAJOR_AXIS":"6889.118","TIME_SYSTEM":"UTC","NORAD_CAT_ID":"53700","RCS_SIZE":"LARGE","MEAN_ANOMALY":"130.7158","ARG_OF_PERICENTER":"65.5638","RA_OF_ASC_NODE":"198.4344","PERIAPSIS":"509.953","OBJECT_ID":"2022-107A","PERIOD":"94.843","EPHEMERIS_TYPE":"0","SITE":"AFETR","INCLINATION":"53.2172","MEAN_ELEMENT_THEORY":"SGP4","TLE_LINE2":"2 53700  53.2172 198.4344 0001495  65.5638 130.7158 15.18298937  1304","REV_AT_EPOCH":"130","MEAN_MOTION_DOT":"-0.01179138","TLE_LINE1":"1 53700U 22107A   22336.91667824 -.01179138  00000-0 -61751-1 0  9999","COUNTRY_CODE":"US","FILE":"3679625","CENTER_NAME":"EARTH"},{"CENTER_NAME":"EARTH","COUNTRY_CODE":"US","FILE":"3679625","TLE_LINE2":"2 53701  53.2174 198.4027 0001500  88.9194 123.4053 15.18210456  1301","MEAN_MOTION_DOT":"-0.00634073","REV_AT_EPOCH":"130","MEAN_ELEMENT_THEORY":"SGP4","TLE_LINE1":"1 53701U 22107B   22336.91667824 -.00634073  00000-0 -32941-1 0  9992","SITE":"AFETR","INCLINATION":"53.2174","EPHEMERIS_TYPE":"0","PERIOD":"94.849","RA_OF_ASC_NODE":"198.4027","PERIAPSIS":"510.218","OBJECT_ID":"2022-107B","ARG_OF_PERICENTER":"88.9194","NORAD_CAT_ID":"53701","TIME_SYSTEM":"UTC","MEAN_ANOMALY":"123.4053","RCS_SIZE":"LARGE","SEMIMAJOR_AXIS":"6889.386","CLASSIFICATION_TYPE":"U","REF_FRAME":"TEME","ELEMENT_SET_NO":"999","ECCENTRICITY":"0.00015000","OBJECT_TYPE":"PAYLOAD","MEAN_MOTION":"15.18210456","BSTAR":"-0.03294100000000","DECAY_DATE":null,"LAUNCH_DATE":"2022-09-05","APOAPSIS":"512.284","GP_ID":"219384786","EPOCH":"2022-12-02T22:00:00.999936","OBJECT_NAME":"STARLINK-4711","MEAN_MOTION_DDOT":"0.0000000000000"}];
